#aV2009 12 20  0  0   .00000000      96 DD+AD WGS84 FIT  NGA
## 1563       .00000000   900.00000000 55185  .0000000000000
+   32     1  2  3  4  5  6  7  8  9 10 11 12 13 14 15 16 17
+         18 19 20 21 22 23 24 25 26 27 28 29 30 31 32  0  0
+          0  0  0  0  0  0  0  0  0  0  0  0  0  0  0  0  0
+          0  0  0  0  0  0  0  0  0  0  0  0  0  0  0  0  0
+          0  0  0  0  0  0  0  0  0  0  0  0  0  0  0  0  0
++         0  0  0  0  0  0  0  0  0  0  0  0  0  0  0  0  0
++         0  0  0  0  0  0  0  0  0  0  0  0  0  0  0  0  0
++         0  0  0  0  0  0  0  0  0  0  0  0  0  0  0  0  0
++         0  0  0  0  0  0  0  0  0  0  0  0  0  0  0  0  0
++         0  0  0  0  0  0  0  0  0  0  0  0  0  0  0  0  0
%c cc cc ccc ccc cccc cccc cccc cccc ccccc ccccc ccccc ccccc
%c cc cc ccc ccc cccc cccc cccc cccc ccccc ccccc ccccc ccccc
%f  0.0000000  0.000000000  0.00000000000  0.000000000000000
%f  0.0000000  0.000000000  0.00000000000  0.000000000000000
%i    0    0    0    0      0      0      0      0         0
%i    0    0    0    0      0      0      0      0         0
/*      NGA, ST. LOUIS,MO.                                  
/*   EPHEMERIS COMPUTED FROM  3 DAYS OF DATA                
/* CCCCCCCCCCCCCCCCCCCCCCCCCCCCCCCCCCCCCCCCCCCCCCCCCCCCCCCCC
/* CCCCCCCCCCCCCCCCCCCCCCCCCCCCCCCCCCCCCCCCCCCCCCCCCCCCCCCCC
*  2009 12 20 12 15   .00000000                                                 
P  1  -4372.993901  15138.583925 -21467.456030    -72.769702                    
V  1 -27027.380116    682.751625   6118.692558      -.028635                    
P  2 -17513.084659   2709.373722 -19720.699597    205.807250                    
V  2   9938.061864 -23105.551273 -12471.546263       .045187                    
P  3  19373.550709   2691.170375  17767.186372    490.499882                    
V  3  13108.209334  19312.863858 -16542.798645       .051262                    
P  4 -12387.436528 -10024.133164 -21379.971119   -416.138773                    
V  4  13082.478238 -23498.125832   3831.343970      -.187820                    
P  5 -26426.233411   2451.611822   1853.242814    -26.389369                    
V  5  -2484.140543  -2638.568033 -31584.673595       .050029                    
P  6  19741.050744   6522.789299  16765.389197    263.364528                    
V  6  10294.249447  18427.575439 -19392.578457      -.006056                    
P  7   5451.431925 -24149.065889   9398.064632      5.676809                    
V  7   7723.014998  -9473.792193 -28946.174993      -.006085                    
P  8  -3644.641575 -17908.670516  19043.019116      1.126615                    
V  8  13774.028279 -20113.402436 -16765.778914       .004805                    
P  9 -15246.127168  20235.404140   7221.454292     95.103061                    
V  9   2331.185251 -10050.764658  30377.899113       .022657                    
P 10 -26550.837476  -1641.658771  -2964.340037    -30.768917                    
V 10   3477.687874  -2705.109147 -31125.952000      -.008767                    
P 11  11260.657638 -22965.778279   6182.315895    -35.262428                    
V 11   2875.980343   9392.325181  28878.060717      -.020112                    
P 12 -18115.535014  11326.141930 -15640.982869   -174.061189                    
V 12 -20043.635692  -1226.762714  22374.840973       .050853                    
P 13  -3618.687385 -23319.445890 -12298.459886    306.592403                    
V 13   8638.536478  12797.435071 -27096.717604       .000215                    
P 14  14887.469527  21838.131118  -3100.606364     -9.912047                    
V 14    414.191103   4473.141619  31930.246062       .046183                    
P 15 -14728.417245   5277.578760  21501.087572   -317.272079                    
V 15 -14620.684212 -22990.489760  -4283.378447       .013852                    
P 16  26023.671255   3061.893028  -5057.037337    -21.461419                    
V 16  -6394.290770   2332.417911 -30953.355478      -.041993                    
P 17 -15915.454476 -21028.983660  -3918.723883    113.614084                    
V 17   -345.379341  -5682.278624  31078.275893       .035511                    
P 18   2823.966697  15685.511024  21523.981299     35.998177                    
V 18 -26788.004596    539.858128   2787.180332       .027110                    
P 19  14095.247179  -6068.118623  21722.483757     -4.947544                    
V 19  12890.876421  24291.031157  -1303.492925      -.020701                    
P 20  13611.551475 -14129.511417 -18008.327292     65.066759                    
V 20  22773.804209    345.366762  17121.572884      -.008180                    
P 21   -810.190357  22636.357814  13643.278926    -28.714155                    
V 21 -11023.862878  13541.388371 -24259.559216      -.024153                    
P 22  15803.986675  12631.853997  17408.782881    183.587455                    
V 22 -21814.891560   2204.779304  18300.843736      -.009898                    
P 23   5714.894465 -16610.991570 -19854.780449    384.050368                    
V 23  14368.617974  20763.724723 -13547.373556      -.007265                    
P 24 -13154.045686  23223.668855    707.284920    246.621967                    
V 24  -2940.603432   -848.466774 -31323.039479       .033028                    
P 25   8076.930363 -25254.716193   3168.049917     58.747998                    
V 25   3450.753156  -2439.902361 -31538.639558       .106557                    
P 26   9815.344085  23889.924779   4453.301664     -3.525936                    
V 26  -5064.316862  -4521.940993  32070.515877      -.026035                    
P 27 -16742.707504  17209.575155  11965.147796    109.951742                    
V 27   4204.555488 -13607.107961  27109.316973       .031530                    
P 28 -13322.725319 -13209.257353  19376.759316    -24.551299                    
V 28  23508.440727  -1141.369375  15453.225534       .003540                    
P 29   1009.568689  21997.539792 -14788.191773     83.619207                    
V 29 -11448.906983 -15209.901890 -23225.862155       .029615                    
P 30  -6488.171810  15451.257352 -20979.858386    203.245306                    
V 30 -25778.543796   1319.787869   9169.573129       .034065                    
P 31  12820.788730   7408.836873 -21829.016253    -58.075736                    
V 31 -13238.092352  24903.690177    818.079266       .011115                    
P 32  21607.438587  -7857.590895 -12650.842862    134.213308                    
V 32  16644.040395   3351.998786  25911.015237      -.078639                    
EOF
